{"type": "FeatureCollection", "features": [ {"type": "Feature", "properties": {"norad_id": 59598, "name": "GSAT0225 (GALILEO 29)", "group": "gnss", "lat": 44.09261547332477, "lon": -116.41012251588738, "alt_km": 23213.26603794682, "timestamp": "2025-12-12T11:38:31.655473+00:00", "meta": {"OBJECT_NAME": "GSAT0225 (GALILEO 29)", "OBJECT_ID": "2024-079A", "EPOCH": "2025-12-10T12:47:07.958400", "MEAN_MOTION": 1.70474727, "ECCENTRICITY": 0.00020453, "INCLINATION": 55.0006, "RA_OF_ASC_NODE": 106.3566, "ARG_OF_PERICENTER": 176.2356, "MEAN_ANOMALY": 187.363, "EPHEMERIS_TYPE": 0, "CLASSIFICATION_TYPE": "U", "NORAD_CAT_ID": 59598, "ELEMENT_SET_NO": 999, "REV_AT_EPOCH": 1010, "BSTAR": 0, "MEAN_MOTION_DOT": 1e-07, "MEAN_MOTION_DDOT": 0}, "tle": {"line1": "1 59598U 24079A   25344.53273100  .00000010  00000+0  00000+0 0  9996", "line2": "2 59598  55.0006 106.3566 0002045 176.2356 187.3630  1.70474727 10101"}}, "geometry": {"type": "Point", "coordinates": [-116.41012251588738, 44.09261547332477]}}, {"type": "Feature", "properties": {"norad_id": 59600, "name": "GSAT0227 (GALILEO 30)", "group": "gnss", "lat": 7.581569345802062, "lon": 111.6368332366934, "alt_km": 23223.85424543217, "timestamp": "2025-12-12T11:38:31.655484+00:00", "meta": {"OBJECT_NAME": "GSAT0227 (GALILEO 30)", "OBJECT_ID": "2024-079C", "EPOCH": "2025-12-08T22:48:42.234912", "MEAN_MOTION": 1.70474719, "ECCENTRICITY": 0.0003262, "INCLINATION": 54.9946, "RA_OF_ASC_NODE": 106.4003, "ARG_OF_PERICENTER": 114.182, "MEAN_ANOMALY": 245.816, "EPHEMERIS_TYPE": 0, "CLASSIFICATION_TYPE": "U", "NORAD_CAT_ID": 59600, "ELEMENT_SET_NO": 999, "REV_AT_EPOCH": 1012, "BSTAR": 0, "MEAN_MOTION_DOT": 9e-08, "MEAN_MOTION_DDOT": 0}, "tle": {"line1": "1 59600U 24079C   25342.95048883  .00000009  00000+0  00000+0 0  9990", "line2": "2 59600  54.9946 106.4003 0003262 114.1820 245.8160  1.70474719 10123"}}, "geometry": {"type": "Point", "coordinates": [111.6368332366934, 7.581569345802062]}}, {"type": "Feature", "properties": {"norad_id": 61182, "name": "GSAT0232 (GALILEO 32)", "group": "gnss", "lat": -19.34382961726908, "lon": 60.540949491692686, "alt_km": 23219.114047698396, "timestamp": "2025-12-12T11:38:31.655497+00:00", "meta": {"OBJECT_NAME": "GSAT0232 (GALILEO 32)", "OBJECT_ID": "2024-167A", "EPOCH": "2025-12-11T07:24:23.319072", "MEAN_MOTION": 1.70473458, "ECCENTRICITY": 0.0001976, "INCLINATION": 55.2412, "RA_OF_ASC_NODE": 226.4699, "ARG_OF_PERICENTER": 212.0591, "MEAN_ANOMALY": 349.7178, "EPHEMERIS_TYPE": 0, "CLASSIFICATION_TYPE": "U", "NORAD_CAT_ID": 61182, "ELEMENT_SET_NO": 999, "REV_AT_EPOCH": 767, "BSTAR": 0, "MEAN_MOTION_DOT": 1.1e-07, "MEAN_MOTION_DDOT": 0}, "tle": {"line1": "1 61182U 24167A   25345.30860323  .00000011  00000+0  00000+0 0  9992", "line2": "2 61182  55.2412 226.4699 0001976 212.0591 349.7178  1.70473458  7678"}}, "geometry": {"type": "Point", "coordinates": [60.540949491692686, -19.34382961726908]}}, {"type": "Feature", "properties": {"norad_id": 61183, "name": "GSAT0226 (GALILEO 31)", "group": "gnss", "lat": -34.51865082496386, "lon": -162.05045769827183, "alt_km": 23228.78017447402, "timestamp": "2025-12-12T11:38:31.655508+00:00", "meta": {"OBJECT_NAME": "GSAT0226 (GALILEO 31)", "OBJECT_ID": "2024-167B", "EPOCH": "2025-12-09T21:57:08.318304", "MEAN_MOTION": 1.70473488, "ECCENTRICITY": 8.079e-05, "INCLINATION": 55.2402, "RA_OF_ASC_NODE": 226.5136, "ARG_OF_PERICENTER": 118.4795, "MEAN_ANOMALY": 60.4734, "EPHEMERIS_TYPE": 0, "CLASSIFICATION_TYPE": "U", "NORAD_CAT_ID": 61183, "ELEMENT_SET_NO": 999, "REV_AT_EPOCH": 762, "BSTAR": 0, "MEAN_MOTION_DOT": 1e-07, "MEAN_MOTION_DDOT": 0}, "tle": {"line1": "1 61183U 24167B   25343.91467961  .00000010  00000+0  00000+0 0  9998", "line2": "2 61183  55.2402 226.5136 0000807 118.4795  60.4734  1.70473488  7625"}}, "geometry": {"type": "Point", "coordinates": [-162.05045769827183, -34.51865082496386]}}, {"type": "Feature", "properties": {"norad_id": 61186, "name": "BEIDOU-3 M25 (C47)", "group": "gnss", "lat": -52.27489909329987, "lon": -117.81618260732752, "alt_km": 21519.00369037849, "timestamp": "2025-12-12T11:38:31.655520+00:00", "meta": {"OBJECT_NAME": "BEIDOU-3 M25 (C47)", "OBJECT_ID": "2024-168B", "EPOCH": "2025-12-09T12:38:32.089056", "MEAN_MOTION": 1.86229941, "ECCENTRICITY": 0.0005432, "INCLINATION": 54.6447, "RA_OF_ASC_NODE": 308.8306, "ARG_OF_PERICENTER": 296.174, "MEAN_ANOMALY": 164.5169, "EPHEMERIS_TYPE": 0, "CLASSIFICATION_TYPE": "U", "NORAD_CAT_ID": 61186, "ELEMENT_SET_NO": 999, "REV_AT_EPOCH": 825, "BSTAR": 0, "MEAN_MOTION_DOT": -7.8e-07, "MEAN_MOTION_DDOT": 0}, "tle": {"line1": "1 61186U 24168B   25343.52676029 -.00000078  00000+0  00000+0 0  9991", "line2": "2 61186  54.6447 308.8306 0005432 296.1740 164.5169  1.86229941  8254"}}, "geometry": {"type": "Point", "coordinates": [-117.81618260732752, -52.27489909329987]}}, {"type": "Feature", "properties": {"norad_id": 61187, "name": "BEIDOU-3 M27 (C49)", "group": "gnss", "lat": 44.39743833008204, "lon": -7.284915826314474, "alt_km": 21521.92927769148, "timestamp": "2025-12-12T11:38:31.655531+00:00", "meta": {"OBJECT_NAME": "BEIDOU-3 M27 (C49)", "OBJECT_ID": "2024-168C", "EPOCH": "2025-12-12T03:14:00.933792", "MEAN_MOTION": 1.86230278, "ECCENTRICITY": 0.0002376, "INCLINATION": 54.6378, "RA_OF_ASC_NODE": 308.7239, "ARG_OF_PERICENTER": 336.4923, "MEAN_ANOMALY": 207.6472, "EPHEMERIS_TYPE": 0, "CLASSIFICATION_TYPE": "U", "NORAD_CAT_ID": 61187, "ELEMENT_SET_NO": 999, "REV_AT_EPOCH": 577, "BSTAR": 0, "MEAN_MOTION_DOT": -9.1e-07, "MEAN_MOTION_DDOT": 0}, "tle": {"line1": "1 61187U 24168C   25346.13473303 -.00000091  00000+0  00000+0 0  9997", "line2": "2 61187  54.6378 308.7239 0002376 336.4923 207.6472  1.86230278  5772"}}, "geometry": {"type": "Point", "coordinates": [-7.284915826314474, 44.39743833008204]}}, {"type": "Feature", "properties": {"norad_id": 62339, "name": "GPS BIII-7  (PRN 01)", "group": "gnss", "lat": 52.83064735063006, "lon": 49.66225096664908, "alt_km": 20177.044948792885, "timestamp": "2025-12-12T11:38:31.655544+00:00", "meta": {"OBJECT_NAME": "GPS BIII-7  (PRN 01)", "OBJECT_ID": "2024-242A", "EPOCH": "2025-12-10T14:03:42.090048", "MEAN_MOTION": 2.00567746, "ECCENTRICITY": 0.0012131, "INCLINATION": 54.9242, "RA_OF_ASC_NODE": 341.8267, "ARG_OF_PERICENTER": 344.331, "MEAN_ANOMALY": 161.0631, "EPHEMERIS_TYPE": 0, "CLASSIFICATION_TYPE": "U", "NORAD_CAT_ID": 62339, "ELEMENT_SET_NO": 999, "REV_AT_EPOCH": 747, "BSTAR": 0, "MEAN_MOTION_DOT": -9e-07, "MEAN_MOTION_DDOT": 0}, "tle": {"line1": "1 62339U 24242A   25344.58590382 -.00000090  00000+0  00000+0 0  9993", "line2": "2 62339  54.9242 341.8267 0012131 344.3310 161.0631  2.00567746  7471"}}, "geometry": {"type": "Point", "coordinates": [49.66225096664908, 52.83064735063006]}}, {"type": "Feature", "properties": {"norad_id": 62850, "name": "NVS-02 (IRNSS-1K)", "group": "gnss", "lat": -19.117893536083624, "lon": -147.57954104345848, "alt_km": 20105.20933935201, "timestamp": "2025-12-12T11:38:31.655556+00:00", "meta": {"OBJECT_NAME": "NVS-02 (IRNSS-1K)", "OBJECT_ID": "2025-020A", "EPOCH": "2025-12-12T02:07:34.112064", "MEAN_MOTION": 2.17593544, "ECCENTRICITY": 0.7347881, "INCLINATION": 20.9849, "RA_OF_ASC_NODE": 327.895, "ARG_OF_PERICENTER": 25.8113, "MEAN_ANOMALY": 357.274, "EPHEMERIS_TYPE": 0, "CLASSIFICATION_TYPE": "U", "NORAD_CAT_ID": 62850, "ELEMENT_SET_NO": 999, "REV_AT_EPOCH": 690, "BSTAR": 0.00035295, "MEAN_MOTION_DOT": 3.23e-06, "MEAN_MOTION_DDOT": 0}, "tle": {"line1": "1 62850U 25020A   25346.08858926  .00000323  00000+0  35295-3 0  9990", "line2": "2 62850  20.9849 327.8950 7347881  25.8113 357.2740  2.17593544  6900"}}, "geometry": {"type": "Point", "coordinates": [-147.57954104345848, -19.117893536083624]}}, {"type": "Feature", "properties": {"norad_id": 62876, "name": "QZS-6 (QZSS/PRN 200)", "group": "gnss", "lat": -0.02218570659013464, "lon": -13.433120439815909, "alt_km": 35783.750113786984, "timestamp": "2025-12-12T11:38:31.655570+00:00", "meta": {"OBJECT_NAME": "QZS-6 (QZSS/PRN 200)", "OBJECT_ID": "2025-023A", "EPOCH": "2025-12-11T22:51:38.668032", "MEAN_MOTION": 1.00274739, "ECCENTRICITY": 0.00017267, "INCLINATION": 0.0292, "RA_OF_ASC_NODE": 51.5999, "ARG_OF_PERICENTER": 217.3118, "MEAN_ANOMALY": 245.3902, "EPHEMERIS_TYPE": 0, "CLASSIFICATION_TYPE": "U", "NORAD_CAT_ID": 62876, "ELEMENT_SET_NO": 999, "REV_AT_EPOCH": 308, "BSTAR": 0, "MEAN_MOTION_DOT": -2.25e-06, "MEAN_MOTION_DDOT": 0}, "tle": {"line1": "1 62876U 25023A   25345.95253088 -.00000225  00000+0  00000+0 0  9998", "line2": "2 62876   0.0292  51.5999 0001726 217.3118 245.3902  1.00274739  3080"}}, "geometry": {"type": "Point", "coordinates": [-13.433120439815909, -0.02218570659013464]}}, {"type": "Feature", "properties": {"norad_id": 63130, "name": "COSMOS 2584 (704K)", "group": "gnss", "lat": 64.28318425322288, "lon": 154.7322935330577, "alt_km": 19135.941328403187, "timestamp": "2025-12-12T11:38:31.655582+00:00", "meta": {"OBJECT_NAME": "COSMOS 2584 (704K)", "OBJECT_ID": "2025-042A", "EPOCH": "2025-12-08T03:39:29.178720", "MEAN_MOTION": 2.13102925, "ECCENTRICITY": 0.0007602, "INCLINATION": 64.9737, "RA_OF_ASC_NODE": 79.3022, "ARG_OF_PERICENTER": 215.9611, "MEAN_ANOMALY": 144.0025, "EPHEMERIS_TYPE": 0, "CLASSIFICATION_TYPE": "U", "NORAD_CAT_ID": 63130, "ELEMENT_SET_NO": 999, "REV_AT_EPOCH": 597, "BSTAR": 0, "MEAN_MOTION_DOT": -1.2e-07, "MEAN_MOTION_DDOT": 0}, "tle": {"line1": "1 63130U 25042A   25342.15242105 -.00000012  00000+0  00000+0 0  9994", "line2": "2 63130  64.9737  79.3022 0007602 215.9611 144.0025  2.13102925  5976"}}, "geometry": {"type": "Point", "coordinates": [154.7322935330577, 64.28318425322288]}}]}